CUTE-1 (CO-55)          
1 27844U 03031E   25059.00248052  .00001107  00000+0  50242-3 0  9998
2 27844  98.6795  68.5794 0010699 119.4397 240.7851 14.23845929124213
CUBESAT XI-IV (CO-57)   
1 27848U 03031J   25058.76344490  .00000881  00000+0  40887-3 0  9999
2 27848  98.6823  68.4247 0010386 135.4250 224.7765 14.23201819123882
CUBESAT XI-V            
1 28895U 05043F   25058.87494646  .00005828  00000+0  97210-3 0  9996
2 28895  98.2310 202.0951 0013944 268.7156  91.2452 14.70284687 32221
CUTE-1.7+APD II (CO-65) 
1 32785U 08021C   25058.12285794  .00013862  00000+0  10459-2 0  9994
2 32785  97.7747  28.7215 0009975 189.3622 170.7418 15.02508531913757
AAUSAT-II               
1 32788U 08021F   25058.91010385  .00158591  00000+0  26552-2 0  9996
2 32788  97.6060  51.3200 0004984  78.8809 281.3002 15.51283833917545
CANX-2                  
1 32790U 08021H   25059.17916714  .00011743  00000+0  94352-3 0  9990
2 32790  97.7998  28.3354 0012003 176.5881 183.5426 15.00133578913688
SEEDS II (CO-66)        
1 32791U 08021J   25058.45989612  .00026829  00000+0  14542-2 0  9991
2 32791  97.7200  36.5576 0006228 133.3760 226.7991 15.14546447915093
SWISSCUBE               
1 35932U 09051B   25058.66391858  .00003675  00000+0  76113-3 0  9994
2 35932  98.4425 312.9579 0005711 245.4171 114.6434 14.60862385819835
BEESAT-1                
1 35933U 09051C   25058.46240585  .00003123  00000+0  65581-3 0  9998
2 35933  98.4357 313.2838 0004078 262.0877  97.9860 14.60345446819868
ITUPSAT1                
1 35935U 09051E   25058.60185637  .00002877  00000+0  62052-3 0  9997
2 35935  98.4452 313.0476 0006357 271.2764  88.7707 14.59176884819494
TISAT 1                 
1 36799U 10035E   25058.47793935  .00028779  00000+0  16436-2 0  9994
2 36799  98.0663 326.4316 0005868  87.5797 272.6104 15.12664702795516
AEROCUBE 4.5A           
1 38767U 12048K   25059.16788187  .00045810  00000+0  14868-2 0  9999
2 38767  64.6498 201.8375 0107192 301.6327  57.4377 15.26227932299303
AEROCUBE 4.5B           
1 38768U 12048L   25059.15264587  .00900325  36725-3  21684-2 0  9994
2 38768  64.6270  89.3192 0032029 302.2218  57.5840 15.95227603301008
STRAND-1                
1 39090U 13009E   25058.78996082  .00001087  00000+0  38344-3 0  9993
2 39090  98.3807 246.1598 0008330 202.6927 157.3892 14.36664585628936
BRITE-AUSTRIA           
1 39091U 13009F   25058.55192432  .00000746  00000+0  27021-3 0  9997
2 39091  98.3861 245.1950 0009638 212.3941 147.6655 14.36206200628917
NEE-01 PEGASO           
1 39151U 13018B   25058.33088264  .00008114  00000+0  85323-3 0  9993
2 39151  98.0563 185.0683 0013047 286.3765  73.6017 14.89639664639902
ESTCUBE 1               
1 39161U 13021C   25059.16381386  .00005886  00000+0  80206-3 0  9999
2 39161  97.7940 123.8433 0009839 117.2637 242.9578 14.79022323634933
POPACS 1                
1 39268U 13055D   25058.82437520  .00071691  40688-6  82642-3 0  9994
2 39268  80.9758 210.9363 0292636 330.7888  27.7239 15.24149572599054
POPACS 2                
1 39269U 13055E   25058.46083701  .00023177  00000+0  48067-3 0  9999
2 39269  81.0001 319.4496 0494979 256.5980  97.9614 14.70815215592932
POPACS 3                
1 39270U 13055F   25058.88103342  .00020538  00000+0  52798-3 0  9995
2 39270  81.0078  19.2857 0597998  63.6141 302.5157 14.44668388569787
ZACUBE-1 (TSHEPISOSAT)  
1 39417U 13066B   25059.11558924  .00014721  00000+0  13250-2 0  9993
2 39417  97.7689  16.8532 0046978  33.2727 327.1432 14.94866187609747
WNISAT-1                
1 39423U 13066H   25058.87994658  .00002858  00000+0  54109-3 0  9997
2 39423  97.6694 238.7116 0165379 285.6598  72.6409 14.56635909597643
TRITON-1                
1 39427U 13066M   25059.16703308  .00010981  00000+0  14153-2 0  9994
2 39427  97.8409 335.5625 0095628 336.4898  23.1955 14.78007250604160
DELFI-N3XT              
1 39428U 13066N   25058.70842743  .00023406  00000+0  24990-2 0  9997
2 39428  97.8379 337.6546 0087912 337.0266  22.7027 14.85959924603936
GOMX-1                  
1 39430U 13066Q   25059.15408857  .00006374  00000+0  10019-2 0  9996
2 39430  97.6978 283.9992 0134460 156.3687 204.3774 14.66936182600530
CUBEBUG-2 (LO-74)       
1 39440U 13066AA  25058.55321178  .00009590  00000+0  10014-2 0  9998
2 39440  97.8404   3.9861 0064705 154.8151 205.6245 14.88358614606259
NEE-02 KRYSAOR          
1 39441U 13066AB  25058.76897000  .00006430  00000+0  75647-3 0  9998
2 39441  97.8477 358.7547 0070016 181.5616 178.5390 14.83412874605787
FUNCUBE-1 (AO-73)       
1 39444U 13066AE  25059.16870918  .00022908  00000+0  18228-2 0  9994
2 39444  97.7536  21.0183 0042193  11.3946 348.8222 14.99693302608965
UWE-3                   
1 39446U 13066AG  25058.81558128  .00013186  00000+0  12889-2 0  9998
2 39446  97.8136  10.4792 0057201  96.2129 264.5609 14.91239823606735
BRITE-CA1 (TORONTO)     
1 40020U 14033L   25058.90848526  .00003080  00000+0  48382-3 0  9997
2 40020  97.9071 193.8923 0080595 355.7604   4.2911 14.71143050572550
DUCHIFAT-1              
1 40021U 14033M   25058.93472515  .00044296  00000+0  19259-2 0  9996
2 40021  98.1005  64.8800 0007507 320.6040  39.4647 15.22106136582827
NANOSATC-BR1            
1 40024U 14033Q   25058.86683162  .00030753  00000+0  16806-2 0  9991
2 40024  98.0881  50.0330 0006561  47.0955 313.0825 15.14225696581798
QB50P1                  
1 40025U 14033R   25059.17754749  .00021610  00000+0  14133-2 0  9990
2 40025  98.0750  36.3702 0012850  48.6327 311.6003 15.07735758581858
QB50P2                  
1 40032U 14033Y   25058.41082821  .00017468  00000+0  12047-2 0  9997
2 40032  98.0327  25.3229 0008642   2.9213 357.2061 15.05851669580980
PERSEUS-M2              
1 40037U 14033AD  25059.13102590  .00005189  00000+0  50379-3 0  9996
2 40037  97.9480 357.5486 0014194  72.2262 288.0504 14.93001381580483
PERSEUS-M1              
1 40039U 14033AF  25059.04774503  .00005762  00000+0  55964-3 0  9999
2 40039  97.9238 352.7511 0014001  71.7418 288.5323 14.92935126580336
POLYITAN-1              
1 40042U 14033AJ  25058.70105363  .00034532  00000+0  18905-2 0  9997
2 40042  98.0977  42.0753 0010353   4.8597 355.2732 15.14106419581348
TIGRISAT                
1 40043U 14033AK  25058.69146573  .00008030  00000+0  99324-3 0  9993
2 40043  97.7192 217.3823 0052282 188.6355 171.3965 14.82037809575268
AEROCUBE 6A             
1 40045U 14033AM  25058.88876411  .00019127  00000+0  19381-2 0  9990
2 40045  97.6818 229.7205 0044983 157.4348 202.8862 14.90192405575786
AEROCUBE 6B             
1 40046U 14033AN  25058.42377675  .00018987  00000+0  18756-2 0  9997
2 40046  97.6795 228.2504 0043617 153.0083 207.3417 14.91255215575795
CANX-4                  
1 40055U 14034C   25059.14042815  .00003923  00000+0  52780-3 0  9993
2 40055  98.3745 270.6298 0014286  92.1946 268.0901 14.79783341574412
CANX-5                  
1 40056U 14034D   25059.14373530  .00003891  00000+0  52352-3 0  9994
2 40056  98.3749 270.6499 0014283  92.3961 267.8885 14.79796102574413
UKUBE-1                 
1 40074U 14037F   25058.92229295  .00022676  00000+0  17096-2 0  9997
2 40074  98.3854  12.6312 0002490  65.5476 294.6006 15.02470389577068
BRITE-PL2 (HEWELIUSZ)   
1 40119U 14049B   25058.83044878  .00007304  00000+0  72973-3 0  9999
2 40119  97.8831 163.9576 0013965 238.6359 121.3494 14.91717569570657
AEROCUBE 5C             
1 40965U 15058B   25058.65433070  .00007482  00000+0  63173-3 0  9994
2 40965  64.7688 294.7510 0178730 231.8315 126.6580 14.87189195294974
AEROCUBE 7              
1 40966U 15058C   25058.12837510  .00009382  00000+0  74485-3 0  9993
2 40966  64.7648 287.1682 0171574 231.7669 126.7895 14.90074062295024
FOX-1A (AO-85)          
1 40967U 15058D   25059.14823196  .00007932  00000+0  68478-3 0  9996
2 40967  64.7774 308.0170 0175587 227.1348 131.4904 14.86692789 42987
SINOD-D 1               
1 40968U 15058E   25059.14183374  .00010710  00000+0  86268-3 0  9999
2 40968  64.7765 297.6125 0166765 226.1325 132.5911 14.90012311 45876
SNAP-3 ALICE            
1 40970U 15058G   25058.46111317  .00056741  00000+0  26883-2 0  9994
2 40970  64.7634 235.8317 0114420 225.5513 133.6209 15.13294554 44175
LMRST-SAT               
1 40971U 15058H   25059.13922125  .00007651  00000+0  66029-3 0  9990
2 40971  64.7771 303.6718 0177523 228.5564 130.0183 14.86511673 42981
SNAP-3 EDDIE            
1 40972U 15058J   25058.73445417  .00059564  00000+0  27783-2 0  9993
2 40972  64.7616 227.7863 0115227 226.4261 132.7253 15.13721365 46322
PROPCUBE 3              
1 40973U 15058K   25059.05988372  .00009679  00000+0  78482-3 0  9997
2 40973  64.7692 288.8921 0172855 230.1814 128.3977 14.89136041 44062
BISONSAT                
1 40974U 15058L   25058.02948753  .00026288  00000+0  16160-2 0  9992
2 40974  64.7625 254.2428 0141152 228.5222 130.3709 15.01990185 43896
SNAP-3 JIMI             
1 40975U 15058M   25058.97768968  .00015152  00000+0  10990-2 0  9998
2 40975  64.7661 272.1008 0159646 229.2996 129.4159 14.94380881 43157
PROPCUBE 1 (FLORA)      
1 40976U 15058N   25058.73999252  .00007164  00000+0  64277-3 0  9997
2 40976  64.7774 321.8310 0176830 230.1876 128.3557 14.85227747 45695
SINOD-D 3               
1 40977U 15058P   25059.09086789  .00010143  00000+0  84870-3 0  9992
2 40977  64.7746 310.8521 0167957 229.3480 129.2929 14.88524941 44048
HORYU-4                 
1 41340U 16012D   25058.45229678  .00037268  00000+0  12224-2 0  9993
2 41340  30.9999  95.7129 0006840  92.8692 267.2734 15.30390176497095
RAVAN                   
1 41849U 16067B   25058.51263400  .00030457  00000+0  11842-2 0  9993
2 41849  98.0539 259.3350 0009657 231.4956 128.5415 15.25949650454753
CELTEE 1                
1 41850U 16067C   25058.77165686  .00014390  00000+0  82539-3 0  9990
2 41850  98.1085 248.8261 0001845  67.8577 292.2848 15.12683995453983
